{
  "type": "FeatureCollection",
  "metadata": {
    "publisher": "Aalborg Kommune",
    "title": {
      "da": "Foreslåede vejlukninger med stiadgang",
      "en": "Proposed road closures with path access"
    },
    "sourceUrl": "https://www.aalborg.dk/om-kommunen/udvikling-og-projekter/udvikling-af-kommunen/3-limfjordsforbindelse/",
    "sourceCaption": "Forslag til ny udformning af Mølholmsvej og Annebergvej. De røde streger markerer vejlukning med stiadgang.",
    "status": "preliminary-proposal",
    "reviewedAt": "2026-10-07",
    "georeferencing": {
      "method": "Least-squares affine fit of the image to four signalised junctions in OpenStreetMap; image measured at about 1 m per pixel.",
      "imageSizePx": [
        2000,
        363
      ],
      "controlPoints": [
        {
          "street": "Svalegårdsvej",
          "imagePx": [
            360,
            200
          ],
          "residualM": 0.0
        },
        {
          "street": "Skydebanevej",
          "imagePx": [
            940,
            65
          ],
          "residualM": 1.6
        },
        {
          "street": "Vestre Kærvej",
          "imagePx": [
            1395,
            135
          ],
          "residualM": 2.9
        },
        {
          "street": "Vestre Fjordvej",
          "imagePx": [
            1920,
            222
          ],
          "residualM": 1.3
        }
      ],
      "streetData": "© OpenStreetMap contributors (ODbL), OpenMapTiles schema via OpenFreeMap",
      "tileTemplate": "https://tiles.openfreemap.org/planet/20261004_113936_pt/{z}/{x}/{y}.pbf",
      "zoom": 14
    },
    "note": "Positions are approximate. Each closure is drawn across its side street about 18 m from the corridor centreline; publishedBarCoordinates keeps where the municipality drew the bar, along its redesigned road edge. Street names are from OpenStreetMap because DAWA closed on 1 October 2026."
  },
  "features": [
    {
      "type": "Feature",
      "properties": {
        "id": "closure-01-lovstikkevej",
        "kind": "closure-with-path-access",
        "street": "Løvstikkevej",
        "description": null,
        "corridorRoad": "Mølholmsvej",
        "side": "south",
        "status": "preliminary-proposal",
        "confidence": "schematic",
        "crossedWayClass": "minor",
        "sideStreetDistanceM": 0.0,
        "setBackFromCorridorM": 18.6,
        "sourceImagePx": [
          [
            25.8,
            348.5
          ],
          [
            39.0,
            344.0
          ]
        ],
        "publishedBarCoordinates": [
          [
            9.863641,
            57.0439775
          ],
          [
            9.8638121,
            57.0440605
          ]
        ],
        "sourceUrl": "https://www.aalborg.dk/om-kommunen/udvikling-og-projekter/udvikling-af-kommunen/3-limfjordsforbindelse/",
        "reviewedAt": "2026-10-07"
      },
      "geometry": {
        "type": "LineString",
        "coordinates": [
          [
            9.863999,
            57.0440245
          ],
          [
            9.8638381,
            57.0439357
          ]
        ]
      }
    },
    {
      "type": "Feature",
      "properties": {
        "id": "closure-02-lindskovvej",
        "kind": "closure-with-path-access",
        "street": "Lindskovvej",
        "description": null,
        "corridorRoad": "Mølholmsvej",
        "side": "south",
        "status": "preliminary-proposal",
        "confidence": "schematic",
        "crossedWayClass": "minor",
        "sideStreetDistanceM": 0.0,
        "setBackFromCorridorM": 18.6,
        "sourceImagePx": [
          [
            196.2,
            269.5
          ],
          [
            217.0,
            261.9
          ]
        ],
        "publishedBarCoordinates": [
          [
            9.865724,
            57.0452211
          ],
          [
            9.8659906,
            57.045356
          ]
        ],
        "sourceUrl": "https://www.aalborg.dk/om-kommunen/udvikling-og-projekter/udvikling-af-kommunen/3-limfjordsforbindelse/",
        "reviewedAt": "2026-10-07"
      },
      "geometry": {
        "type": "LineString",
        "coordinates": [
          [
            9.8658368,
            57.0451574
          ],
          [
            9.8660827,
            57.0453035
          ]
        ]
      }
    },
    {
      "type": "Feature",
      "properties": {
        "id": "closure-03-norden",
        "kind": "closure-with-path-access",
        "street": "Norden",
        "description": null,
        "corridorRoad": "Mølholmsvej",
        "side": "north",
        "status": "preliminary-proposal",
        "confidence": "schematic",
        "crossedWayClass": "service",
        "sideStreetDistanceM": 0.0,
        "setBackFromCorridorM": 18.3,
        "sourceImagePx": [
          [
            236.0,
            233.1
          ],
          [
            262.0,
            224.1
          ]
        ],
        "publishedBarCoordinates": [
          [
            9.8661024,
            57.0456602
          ],
          [
            9.8664387,
            57.0458247
          ]
        ],
        "sourceUrl": "https://www.aalborg.dk/om-kommunen/udvikling-og-projekter/udvikling-af-kommunen/3-limfjordsforbindelse/",
        "reviewedAt": "2026-10-07"
      },
      "geometry": {
        "type": "LineString",
        "coordinates": [
          [
            9.8659091,
            57.0456624
          ],
          [
            9.8662457,
            57.0458267
          ]
        ]
      }
    },
    {
      "type": "Feature",
      "properties": {
        "id": "closure-04-adgangsvej-oest-for-norden",
        "kind": "closure-with-path-access",
        "street": null,
        "description": {
          "da": "Unavngiven adgangsvej øst for Norden",
          "en": "Unnamed access road east of Norden"
        },
        "corridorRoad": "Mølholmsvej",
        "side": "north",
        "status": "preliminary-proposal",
        "confidence": "schematic",
        "crossedWayClass": "service",
        "sideStreetDistanceM": 0.0,
        "setBackFromCorridorM": 18.9,
        "sourceImagePx": [
          [
            269.5,
            221.0
          ],
          [
            282.5,
            217.0
          ]
        ],
        "publishedBarCoordinates": [
          [
            9.8665327,
            57.0458763
          ],
          [
            9.8667038,
            57.0459544
          ]
        ],
        "sourceUrl": "https://www.aalborg.dk/om-kommunen/udvikling-og-projekter/udvikling-af-kommunen/3-limfjordsforbindelse/",
        "reviewedAt": "2026-10-07"
      },
      "geometry": {
        "type": "LineString",
        "coordinates": [
          [
            9.8664598,
            57.0459419
          ],
          [
            9.866619,
            57.0460271
          ]
        ]
      }
    },
    {
      "type": "Feature",
      "properties": {
        "id": "closure-05-molholmsvej-nordvestlige-gren",
        "kind": "closure-with-path-access",
        "street": "Mølholmsvej",
        "description": {
          "da": "Mølholmsvejs nordvestlige gren, lige vest for Svalegårdsvej",
          "en": "The north-western branch of Mølholmsvej, just west of Svalegårdsvej"
        },
        "corridorRoad": "Mølholmsvej",
        "side": "north",
        "status": "preliminary-proposal",
        "confidence": "schematic",
        "crossedWayClass": "minor",
        "sideStreetDistanceM": 0.0,
        "setBackFromCorridorM": 19.0,
        "sourceImagePx": [
          [
            310.0,
            207.1
          ],
          [
            323.1,
            202.4
          ]
        ],
        "publishedBarCoordinates": [
          [
            9.8670572,
            57.0461315
          ],
          [
            9.8672256,
            57.0462157
          ]
        ],
        "sourceUrl": "https://www.aalborg.dk/om-kommunen/udvikling-og-projekter/udvikling-af-kommunen/3-limfjordsforbindelse/",
        "reviewedAt": "2026-10-07"
      },
      "geometry": {
        "type": "LineString",
        "coordinates": [
          [
            9.8669688,
            57.0461942
          ],
          [
            9.8671321,
            57.0462814
          ]
        ]
      }
    },
    {
      "type": "Feature",
      "properties": {
        "id": "closure-06-johannesmindevej",
        "kind": "closure-with-path-access",
        "street": "Johannesmindevej",
        "description": null,
        "corridorRoad": "Mølholmsvej",
        "side": "south",
        "status": "preliminary-proposal",
        "confidence": "schematic",
        "crossedWayClass": "minor",
        "sideStreetDistanceM": 0.0,
        "setBackFromCorridorM": 18.4,
        "sourceImagePx": [
          [
            865.8,
            99.5
          ],
          [
            879.3,
            95.0
          ]
        ],
        "publishedBarCoordinates": [
          [
            9.8747571,
            57.0489448
          ],
          [
            9.8749327,
            57.0490287
          ]
        ],
        "sourceUrl": "https://www.aalborg.dk/om-kommunen/udvikling-og-projekter/udvikling-af-kommunen/3-limfjordsforbindelse/",
        "reviewedAt": "2026-10-07"
      },
      "geometry": {
        "type": "LineString",
        "coordinates": [
          [
            9.8750196,
            57.0490021
          ],
          [
            9.8748506,
            57.0489142
          ]
        ]
      }
    },
    {
      "type": "Feature",
      "properties": {
        "id": "closure-07-vesterkaeret",
        "kind": "closure-with-path-access",
        "street": "Vesterkæret",
        "description": null,
        "corridorRoad": "Annebergvej",
        "side": "south",
        "status": "preliminary-proposal",
        "confidence": "schematic",
        "crossedWayClass": "service",
        "sideStreetDistanceM": 0.0,
        "setBackFromCorridorM": 18.8,
        "sourceImagePx": [
          [
            982.0,
            80.0
          ],
          [
            996.1,
            82.4
          ]
        ],
        "publishedBarCoordinates": [
          [
            9.8763851,
            57.049508
          ],
          [
            9.8766113,
            57.0495369
          ]
        ],
        "sourceUrl": "https://www.aalborg.dk/om-kommunen/udvikling-og-projekter/udvikling-af-kommunen/3-limfjordsforbindelse/",
        "reviewedAt": "2026-10-07"
      },
      "geometry": {
        "type": "LineString",
        "coordinates": [
          [
            9.8763944,
            57.0494664
          ],
          [
            9.8766265,
            57.0494728
          ]
        ]
      }
    },
    {
      "type": "Feature",
      "properties": {
        "id": "closure-08-adgang-vest-for-boligbebyggelse",
        "kind": "closure-with-path-access",
        "street": null,
        "description": {
          "da": "Unavngiven adgang vest for boligbebyggelsen",
          "en": "Unnamed access west of the housing estate"
        },
        "corridorRoad": "Annebergvej",
        "side": "south",
        "status": "preliminary-proposal",
        "confidence": "schematic",
        "crossedWayClass": "service",
        "sideStreetDistanceM": 0.0,
        "setBackFromCorridorM": 18.9,
        "sourceImagePx": [
          [
            1238.9,
            124.4
          ],
          [
            1253.1,
            126.5
          ]
        ],
        "publishedBarCoordinates": [
          [
            9.8805116,
            57.0500286
          ],
          [
            9.8807376,
            57.0500603
          ]
        ],
        "sourceUrl": "https://www.aalborg.dk/om-kommunen/udvikling-og-projekter/udvikling-af-kommunen/3-limfjordsforbindelse/",
        "reviewedAt": "2026-10-07"
      },
      "geometry": {
        "type": "LineString",
        "coordinates": [
          [
            9.8805987,
            57.049992
          ],
          [
            9.8808223,
            57.0500284
          ]
        ]
      }
    },
    {
      "type": "Feature",
      "properties": {
        "id": "closure-09-adgang-oest-for-boligbebyggelse",
        "kind": "closure-with-path-access",
        "street": null,
        "description": {
          "da": "Unavngiven adgang øst for boligbebyggelsen",
          "en": "Unnamed access east of the housing estate"
        },
        "corridorRoad": "Annebergvej",
        "side": "south",
        "status": "preliminary-proposal",
        "confidence": "schematic",
        "crossedWayClass": "path",
        "sideStreetDistanceM": 0.0,
        "setBackFromCorridorM": 18.1,
        "sourceImagePx": [
          [
            1325.0,
            139.9
          ],
          [
            1339.1,
            142.2
          ]
        ],
        "publishedBarCoordinates": [
          [
            9.8818984,
            57.050198
          ],
          [
            9.8821241,
            57.0502277
          ]
        ],
        "sourceUrl": "https://www.aalborg.dk/om-kommunen/udvikling-og-projekter/udvikling-af-kommunen/3-limfjordsforbindelse/",
        "reviewedAt": "2026-10-07"
      },
      "geometry": {
        "type": "LineString",
        "coordinates": [
          [
            9.8818007,
            57.0501596
          ],
          [
            9.8820281,
            57.0501851
          ]
        ]
      }
    },
    {
      "type": "Feature",
      "properties": {
        "id": "closure-10-markvej-ved-boldbanerne",
        "kind": "closure-with-path-access",
        "street": null,
        "description": {
          "da": "Unavngiven markvej mellem boldbanerne",
          "en": "Unnamed track between the sports pitches"
        },
        "corridorRoad": "Annebergvej",
        "side": "north",
        "status": "preliminary-proposal",
        "confidence": "schematic",
        "crossedWayClass": "track",
        "sideStreetDistanceM": 0.0,
        "setBackFromCorridorM": 18.0,
        "sourceImagePx": [
          [
            1699.8,
            177.2
          ],
          [
            1713.0,
            179.3
          ]
        ],
        "publishedBarCoordinates": [
          [
            9.8877536,
            57.0511847
          ],
          [
            9.8879646,
            57.0512129
          ]
        ],
        "sourceUrl": "https://www.aalborg.dk/om-kommunen/udvikling-og-projekter/udvikling-af-kommunen/3-limfjordsforbindelse/",
        "reviewedAt": "2026-10-07"
      },
      "geometry": {
        "type": "LineString",
        "coordinates": [
          [
            9.8877998,
            57.0512619
          ],
          [
            9.8879981,
            57.0513102
          ]
        ]
      }
    }
  ]
}
